{
  "type": "FeatureCollection",
  "features": [
    {
      "type": "Feature",
      "properties": {
        "norad_id": 66568,
        "name": "STARLINK-35803",
        "group": "last-30-days",
        "lat": -5.321078921296224,
        "lon": 36.32535210162224,
        "alt_km": 420.9178687312842,
        "timestamp": "2025-12-26T05:31:11.214933+00:00",
        "meta_object_name": "STARLINK-35803",
        "meta_object_id": "2025-268M",
        "meta_epoch": "2025-12-25T22:00:01.999584",
        "meta_mean_motion": 15.49891314,
        "meta_eccentricity": 0.00016175,
        "meta_inclination": 43.0006,
        "meta_ra_of_asc_node": 43.8909,
        "meta_arg_of_pericenter": 270.8001,
        "meta_mean_anomaly": 131.9471,
        "meta_ephemeris_type": 0,
        "meta_classification_type": "U",
        "meta_norad_cat_id": 66568,
        "meta_element_set_no": 999,
        "meta_rev_at_epoch": 607,
        "meta_bstar": -0.034620123,
        "meta_mean_motion_dot": -0.01762525,
        "meta_mean_motion_ddot": 0,
        "tle_line1": "1 66568U 25268M   25359.91668981 -.01762525  00000+0 -34620-1 0  9991",
        "tle_line2": "2 66568  43.0006  43.8909 0001617 270.8001 131.9471 15.49891314  6076"
      },
      "geometry": {
        "type": "Point",
        "coordinates": [
          36.32535210162224,
          -5.321078921296224
        ]
      }
    },
    {
      "type": "Feature",
      "properties": {
        "norad_id": 66569,
        "name": "STARLINK-35835",
        "group": "last-30-days",
        "lat": 15.203897414251237,
        "lon": 58.94403091007334,
        "alt_km": 417.9858646199782,
        "timestamp": "2025-12-26T05:31:11.214943+00:00",
        "meta_object_name": "STARLINK-35835",
        "meta_object_id": "2025-268N",
        "meta_epoch": "2025-12-25T22:00:01.999584",
        "meta_mean_motion": 15.50310176,
        "meta_eccentricity": 0.00014677,
        "meta_inclination": 43.0011,
        "meta_ra_of_asc_node": 43.8186,
        "meta_arg_of_pericenter": 274.7519,
        "meta_mean_anomaly": 158.0711,
        "meta_ephemeris_type": 0,
        "meta_classification_type": "U",
        "meta_norad_cat_id": 66569,
        "meta_element_set_no": 999,
        "meta_rev_at_epoch": 607,
        "meta_bstar": -0.039869112,
        "meta_mean_motion_dot": -0.02061789,
        "meta_mean_motion_ddot": 0,
        "tle_line1": "1 66569U 25268N   25359.91668981 -.02061789  00000+0 -39869-1 0  9997",
        "tle_line2": "2 66569  43.0011  43.8186 0001467 274.7519 158.0711 15.50310176  6071"
      },
      "geometry": {
        "type": "Point",
        "coordinates": [
          58.94403091007334,
          15.203897414251237
        ]
      }
    },
    {
      "type": "Feature",
      "properties": {
        "norad_id": 66570,
        "name": "STARLINK-35834",
        "group": "last-30-days",
        "lat": -19.894257114337794,
        "lon": -114.73875168881094,
        "alt_km": 464.6434124232137,
        "timestamp": "2025-12-26T05:31:11.214954+00:00",
        "meta_object_name": "STARLINK-35834",
        "meta_object_id": "2025-268P",
        "meta_epoch": "2025-12-25T22:00:01.999584",
        "meta_mean_motion": 15.35601184,
        "meta_eccentricity": 0.00012828,
        "meta_inclination": 43.0008,
        "meta_ra_of_asc_node": 44.2004,
        "meta_arg_of_pericenter": 258.6006,
        "meta_mean_anomaly": 18.0308,
        "meta_ephemeris_type": 0,
        "meta_classification_type": "U",
        "meta_norad_cat_id": 66570,
        "meta_element_set_no": 999,
        "meta_rev_at_epoch": 607,
        "meta_bstar": -0.063421226,
        "meta_mean_motion_dot": -0.01995001,
        "meta_mean_motion_ddot": 0,
        "tle_line1": "1 66570U 25268P   25359.91668981 -.01995001  00000+0 -63421-1 0  9992",
        "tle_line2": "2 66570  43.0008  44.2004 0001282 258.6006  18.0308 15.35601184  6072"
      },
      "geometry": {
        "type": "Point",
        "coordinates": [
          -114.73875168881094,
          -19.894257114337794
        ]
      }
    },
    {
      "type": "Feature",
      "properties": {
        "norad_id": 66571,
        "name": "STARLINK-35836",
        "group": "last-30-days",
        "lat": -29.610327212699588,
        "lon": -100.0500548235094,
        "alt_km": 462.7023861703756,
        "timestamp": "2025-12-26T05:31:11.214965+00:00",
        "meta_object_name": "STARLINK-35836",
        "meta_object_id": "2025-268Q",
        "meta_epoch": "2025-12-25T22:00:01.999584",
        "meta_mean_motion": 15.36440332,
        "meta_eccentricity": 0.00012893,
        "meta_inclination": 43.0008,
        "meta_ra_of_asc_node": 44.1629,
        "meta_arg_of_pericenter": 259.0412,
        "meta_mean_anomaly": 33.1597,
        "meta_ephemeris_type": 0,
        "meta_classification_type": "U",
        "meta_norad_cat_id": 66571,
        "meta_element_set_no": 999,
        "meta_rev_at_epoch": 596,
        "meta_bstar": -0.061896317,
        "meta_mean_motion_dot": -0.02000194,
        "meta_mean_motion_ddot": 0,
        "tle_line1": "1 66571U 25268Q   25359.91668981 -.02000194  00000+0 -61896-1 0  9998",
        "tle_line2": "2 66571  43.0008  44.1629 0001289 259.0412  33.1597 15.36440332  5960"
      },
      "geometry": {
        "type": "Point",
        "coordinates": [
          -100.0500548235094,
          -29.610327212699588
        ]
      }
    },
    {
      "type": "Feature",
      "properties": {
        "norad_id": 66572,
        "name": "STARLINK-35870",
        "group": "last-30-days",
        "lat": -40.50338887779273,
        "lon": -71.25148218763684,
        "alt_km": 458.8659363063589,
        "timestamp": "2025-12-26T05:31:11.214976+00:00",
        "meta_object_name": "STARLINK-35870",
        "meta_object_id": "2025-268R",
        "meta_epoch": "2025-12-25T22:00:01.999584",
        "meta_mean_motion": 15.37910538,
        "meta_eccentricity": 0.0001282,
        "meta_inclination": 43,
        "meta_ra_of_asc_node": 44.1041,
        "meta_arg_of_pericenter": 253.9876,
        "meta_mean_anomaly": 62.4568,
        "meta_ephemeris_type": 0,
        "meta_classification_type": "U",
        "meta_norad_cat_id": 66572,
        "meta_element_set_no": 999,
        "meta_rev_at_epoch": 607,
        "meta_bstar": -0.060708685,
        "meta_mean_motion_dot": -0.02051929,
        "meta_mean_motion_ddot": 0,
        "tle_line1": "1 66572U 25268R   25359.91668981 -.02051929  00000+0 -60709-1 0  9993",
        "tle_line2": "2 66572  43.0000  44.1041 0001282 253.9876  62.4568 15.37910538  6078"
      },
      "geometry": {
        "type": "Point",
        "coordinates": [
          -71.25148218763684,
          -40.50338887779273
        ]
      }
    },
    {
      "type": "Feature",
      "properties": {
        "norad_id": 66573,
        "name": "STARLINK-35650",
        "group": "last-30-days",
        "lat": -42.920229328468345,
        "lon": -51.45924508432784,
        "alt_km": 456.4373770291477,
        "timestamp": "2025-12-26T05:31:11.214986+00:00",
        "meta_object_name": "STARLINK-35650",
        "meta_object_id": "2025-268S",
        "meta_epoch": "2025-12-25T22:00:01.999584",
        "meta_mean_motion": 15.38753501,
        "meta_eccentricity": 0.0001392,
        "meta_inclination": 43.001,
        "meta_ra_of_asc_node": 44.0682,
        "meta_arg_of_pericenter": 259.0277,
        "meta_mean_anomaly": 71.4548,
        "meta_ephemeris_type": 0,
        "meta_classification_type": "U",
        "meta_norad_cat_id": 66573,
        "meta_element_set_no": 999,
        "meta_rev_at_epoch": 607,
        "meta_bstar": -0.059636002,
        "meta_mean_motion_dot": -0.02070229,
        "meta_mean_motion_ddot": 0,
        "tle_line1": "1 66573U 25268S   25359.91668981 -.02070229  00000+0 -59636-1 0  9995",
        "tle_line2": "2 66573  43.0010  44.0682 0001392 259.0277  71.4548 15.38753501  6078"
      },
      "geometry": {
        "type": "Point",
        "coordinates": [
          -51.45924508432784,
          -42.920229328468345
        ]
      }
    },
    {
      "type": "Feature",
      "properties": {
        "norad_id": 66574,
        "name": "STARLINK-35812",
        "group": "last-30-days",
        "lat": -41.886739748302546,
        "lon": -31.997335547417023,
        "alt_km": 453.9224264635059,
        "timestamp": "2025-12-26T05:31:11.214997+00:00",
        "meta_object_name": "STARLINK-35812",
        "meta_object_id": "2025-268T",
        "meta_epoch": "2025-12-25T22:00:01.999584",
        "meta_mean_motion": 15.39587668,
        "meta_eccentricity": 0.00014156,
        "meta_inclination": 43.0014,
        "meta_ra_of_asc_node": 44.0349,
        "meta_arg_of_pericenter": 262.0328,
        "meta_mean_anomaly": 81.9208,
        "meta_ephemeris_type": 0,
        "meta_classification_type": "U",
        "meta_norad_cat_id": 66574,
        "meta_element_set_no": 999,
        "meta_rev_at_epoch": 601,
        "meta_bstar": -0.057539942,
        "meta_mean_motion_dot": -0.02055425,
        "meta_mean_motion_ddot": 0,
        "tle_line1": "1 66574U 25268T   25359.91668981 -.02055425  00000+0 -57540-1 0  9999",
        "tle_line2": "2 66574  43.0014  44.0349 0001415 262.0328  81.9208 15.39587668  6013"
      },
      "geometry": {
        "type": "Point",
        "coordinates": [
          -31.997335547417023,
          -41.886739748302546
        ]
      }
    }
  ]
}